SL-3 R/B                
1 13403U 82079B   26052.12829830  .00006213  00000+0  24948-3 0  9996
2 13403  81.1458 212.6273 0024374 220.9370 139.0034 15.24522223375177
SL-14 R/B               
1 13553U 82092B   26051.75932918  .00000462  00000+0  49114-4 0  9990
2 13553  82.5712 157.2308 0020272   1.8187 111.6778 14.86646972326418
SL-3 R/B                
1 13819U 83010B   26051.99769991  .00014682  00000+0  30132-3 0  9999
2 13819  81.1044  22.7001 0018636 103.5864 256.7458 15.45700647355363
SL-3 R/B                
1 14208U 83075B   26052.09839161  .00010852  00000+0  29100-3 0  9990
2 14208  97.6137  56.0545 0019803 291.3491  68.5640 15.37967880327606
COSMOS 1536             
1 14699U 84013A   26052.17066535  .00004999  00000+0  20717-3 0  9993
2 14699  82.5455 124.2670 0013731 346.6238  13.4632 15.23580983270102
SL-14 R/B               
1 14820U 84027B   26051.99336926  .00000386  00000+0  41249-4 0  9997
2 14820  82.5384 260.6762 0018782  32.9164 327.3217 14.85958068245153
SL-8 R/B                
1 15483U 85006B   26052.11554699  .00000135  00000+0  53388-4 0  9994
2 15483  74.0450 291.6480 0019098 212.9807 299.0840 14.37774134151649
SL-12 R/B(2)            
1 15772U 85042D   26051.68124542  .00000146  00000+0  87288-4 0  9994
2 15772  71.1079 123.6644 0034161 155.7337 320.4909 14.21977541111978
SL-14 R/B               
1 15945U 85069B   26051.98320109  .00000501  00000+0  53881-4 0  9992
2 15945  82.5252  40.6438 0017272 246.0474 113.8935 14.86411720170351
SL-16 R/B               
1 16182U 85097B   26051.76581426  .00000141  00000+0  94662-4 0  9996
2 16182  71.0031 176.1809 0009705 279.0292 186.5257 14.16594830 84834
SL-14 R/B               
1 16496U 86006B   26052.09924254  .00000538  00000+0  54617-4 0  9998
2 16496  82.5245 275.3546 0075845 328.7473  30.9244 14.86791662146743
COSMOS 1743             
1 16719U 86034A   26052.13450814  .00030739  00000+0  42028-3 0  9996
2 16719  82.5302  91.1898 0003753  15.0666 345.0700 15.57272263177671
