CCSDS_OMM_VERS = 2.0
CREATION_DATE  = 
ORIGINATOR     = 

OBJECT_NAME    = SL-3 R/B
OBJECT_ID      = 1982-079B
CENTER_NAME    = EARTH
REF_FRAME      = TEME
TIME_SYSTEM    = UTC
MEAN_ELEMENT_THEORY = SGP/SGP4

EPOCH          = 2026-02-21T03:04:44.973120
MEAN_MOTION    = 15.24522223
ECCENTRICITY   = .0024374
INCLINATION    = 81.1458
RA_OF_ASC_NODE = 212.6273
ARG_OF_PERICENTER = 220.9370
MEAN_ANOMALY   = 139.0034

EPHEMERIS_TYPE = 0
CLASSIFICATION_TYPE = U
NORAD_CAT_ID   = 13403
ELEMENT_SET_NO = 999
REV_AT_EPOCH   = 37517
BSTAR          = .24948E-3
MEAN_MOTION_DOT = .6213E-4
MEAN_MOTION_DDOT = 0

CCSDS_OMM_VERS = 2.0
CREATION_DATE  = 
ORIGINATOR     = 

OBJECT_NAME    = SL-14 R/B
OBJECT_ID      = 1982-092B
CENTER_NAME    = EARTH
REF_FRAME      = TEME
TIME_SYSTEM    = UTC
MEAN_ELEMENT_THEORY = SGP/SGP4

EPOCH          = 2026-02-20T18:13:26.041152
MEAN_MOTION    = 14.86646972
ECCENTRICITY   = .00202721
INCLINATION    = 82.5712
RA_OF_ASC_NODE = 157.2308
ARG_OF_PERICENTER = 1.8187
MEAN_ANOMALY   = 111.6778

EPHEMERIS_TYPE = 0
CLASSIFICATION_TYPE = U
NORAD_CAT_ID   = 13553
ELEMENT_SET_NO = 999
REV_AT_EPOCH   = 32641
BSTAR          = .49114273E-4
MEAN_MOTION_DOT = .462E-5
MEAN_MOTION_DDOT = 0

CCSDS_OMM_VERS = 2.0
CREATION_DATE  = 
ORIGINATOR     = 

OBJECT_NAME    = SL-3 R/B
OBJECT_ID      = 1983-010B
CENTER_NAME    = EARTH
REF_FRAME      = TEME
TIME_SYSTEM    = UTC
MEAN_ELEMENT_THEORY = SGP/SGP4

EPOCH          = 2026-02-20T23:56:41.272224
MEAN_MOTION    = 15.45700647
ECCENTRICITY   = .0018636
INCLINATION    = 81.1044
RA_OF_ASC_NODE = 22.7001
ARG_OF_PERICENTER = 103.5864
MEAN_ANOMALY   = 256.7458

EPHEMERIS_TYPE = 0
CLASSIFICATION_TYPE = U
NORAD_CAT_ID   = 13819
ELEMENT_SET_NO = 999
REV_AT_EPOCH   = 35536
BSTAR          = .30132E-3
MEAN_MOTION_DOT = .14682E-3
MEAN_MOTION_DDOT = 0

CCSDS_OMM_VERS = 2.0
CREATION_DATE  = 
ORIGINATOR     = 

OBJECT_NAME    = SL-3 R/B
OBJECT_ID      = 1983-075B
CENTER_NAME    = EARTH
REF_FRAME      = TEME
TIME_SYSTEM    = UTC
MEAN_ELEMENT_THEORY = SGP/SGP4

EPOCH          = 2026-02-21T02:21:41.035104
MEAN_MOTION    = 15.37967880
ECCENTRICITY   = .0019803
INCLINATION    = 97.6137
RA_OF_ASC_NODE = 56.0545
ARG_OF_PERICENTER = 291.3491
MEAN_ANOMALY   = 68.5640

EPHEMERIS_TYPE = 0
CLASSIFICATION_TYPE = U
NORAD_CAT_ID   = 14208
ELEMENT_SET_NO = 999
REV_AT_EPOCH   = 32760
BSTAR          = .291E-3
MEAN_MOTION_DOT = .10852E-3
MEAN_MOTION_DDOT = 0

CCSDS_OMM_VERS = 2.0
CREATION_DATE  = 
ORIGINATOR     = 

OBJECT_NAME    = COSMOS 1536
OBJECT_ID      = 1984-013A
CENTER_NAME    = EARTH
REF_FRAME      = TEME
TIME_SYSTEM    = UTC
MEAN_ELEMENT_THEORY = SGP/SGP4

EPOCH          = 2026-02-21T04:05:45.486240
MEAN_MOTION    = 15.23580983
ECCENTRICITY   = .0013731
INCLINATION    = 82.5455
RA_OF_ASC_NODE = 124.2670
ARG_OF_PERICENTER = 346.6238
MEAN_ANOMALY   = 13.4632

EPHEMERIS_TYPE = 0
CLASSIFICATION_TYPE = U
NORAD_CAT_ID   = 14699
ELEMENT_SET_NO = 999
REV_AT_EPOCH   = 27010
BSTAR          = .20717E-3
MEAN_MOTION_DOT = .4999E-4
MEAN_MOTION_DDOT = 0

CCSDS_OMM_VERS = 2.0
CREATION_DATE  = 
ORIGINATOR     = 

OBJECT_NAME    = SL-14 R/B
OBJECT_ID      = 1984-027B
CENTER_NAME    = EARTH
REF_FRAME      = TEME
TIME_SYSTEM    = UTC
MEAN_ELEMENT_THEORY = SGP/SGP4

EPOCH          = 2026-02-20T23:50:27.104064
MEAN_MOTION    = 14.85958068
ECCENTRICITY   = .0018782
INCLINATION    = 82.5384
RA_OF_ASC_NODE = 260.6762
ARG_OF_PERICENTER = 32.9164
MEAN_ANOMALY   = 327.3217

EPHEMERIS_TYPE = 0
CLASSIFICATION_TYPE = U
NORAD_CAT_ID   = 14820
ELEMENT_SET_NO = 999
REV_AT_EPOCH   = 24515
BSTAR          = .41249E-4
MEAN_MOTION_DOT = .386E-5
MEAN_MOTION_DDOT = 0

CCSDS_OMM_VERS = 2.0
CREATION_DATE  = 
ORIGINATOR     = 

OBJECT_NAME    = SL-8 R/B
OBJECT_ID      = 1985-006B
CENTER_NAME    = EARTH
REF_FRAME      = TEME
TIME_SYSTEM    = UTC
MEAN_ELEMENT_THEORY = SGP/SGP4

EPOCH          = 2026-02-21T02:46:23.259936
MEAN_MOTION    = 14.37774134
ECCENTRICITY   = .0019098
INCLINATION    = 74.0450
RA_OF_ASC_NODE = 291.6480
ARG_OF_PERICENTER = 212.9807
MEAN_ANOMALY   = 299.0840

EPHEMERIS_TYPE = 0
CLASSIFICATION_TYPE = U
NORAD_CAT_ID   = 15483
ELEMENT_SET_NO = 999
REV_AT_EPOCH   = 15164
BSTAR          = .53388E-4
MEAN_MOTION_DOT = .135E-5
MEAN_MOTION_DDOT = 0

CCSDS_OMM_VERS = 2.0
CREATION_DATE  = 
ORIGINATOR     = 

OBJECT_NAME    = SL-12 R/B(2)
OBJECT_ID      = 1985-042D
CENTER_NAME    = EARTH
REF_FRAME      = TEME
TIME_SYSTEM    = UTC
MEAN_ELEMENT_THEORY = SGP/SGP4

EPOCH          = 2026-02-20T16:20:59.604288
MEAN_MOTION    = 14.21977541
ECCENTRICITY   = .00341617
INCLINATION    = 71.1079
RA_OF_ASC_NODE = 123.6644
ARG_OF_PERICENTER = 155.7337
MEAN_ANOMALY   = 320.4909

EPHEMERIS_TYPE = 0
CLASSIFICATION_TYPE = U
NORAD_CAT_ID   = 15772
ELEMENT_SET_NO = 999
REV_AT_EPOCH   = 11197
BSTAR          = .87288119E-4
MEAN_MOTION_DOT = .146E-5
MEAN_MOTION_DDOT = 0

CCSDS_OMM_VERS = 2.0
CREATION_DATE  = 
ORIGINATOR     = 

OBJECT_NAME    = SL-14 R/B
OBJECT_ID      = 1985-069B
CENTER_NAME    = EARTH
REF_FRAME      = TEME
TIME_SYSTEM    = UTC
MEAN_ELEMENT_THEORY = SGP/SGP4

EPOCH          = 2026-02-20T23:35:48.574176
MEAN_MOTION    = 14.86411720
ECCENTRICITY   = .0017272
INCLINATION    = 82.5252
RA_OF_ASC_NODE = 40.6438
ARG_OF_PERICENTER = 246.0474
MEAN_ANOMALY   = 113.8935

EPHEMERIS_TYPE = 0
CLASSIFICATION_TYPE = U
NORAD_CAT_ID   = 15945
ELEMENT_SET_NO = 999
REV_AT_EPOCH   = 17035
BSTAR          = .53881E-4
MEAN_MOTION_DOT = .501E-5
MEAN_MOTION_DDOT = 0

CCSDS_OMM_VERS = 2.0
CREATION_DATE  = 
ORIGINATOR     = 

OBJECT_NAME    = SL-16 R/B
OBJECT_ID      = 1985-097B
CENTER_NAME    = EARTH
REF_FRAME      = TEME
TIME_SYSTEM    = UTC
MEAN_ELEMENT_THEORY = SGP/SGP4

EPOCH          = 2026-02-20T18:22:46.352064
MEAN_MOTION    = 14.16594830
ECCENTRICITY   = .00097053
INCLINATION    = 71.0031
RA_OF_ASC_NODE = 176.1809
ARG_OF_PERICENTER = 279.0292
MEAN_ANOMALY   = 186.5257

EPHEMERIS_TYPE = 0
CLASSIFICATION_TYPE = U
NORAD_CAT_ID   = 16182
ELEMENT_SET_NO = 999
REV_AT_EPOCH   = 8483
BSTAR          = .94661996E-4
MEAN_MOTION_DOT = .141E-5
MEAN_MOTION_DDOT = 0

CCSDS_OMM_VERS = 2.0
CREATION_DATE  = 
ORIGINATOR     = 

OBJECT_NAME    = SL-14 R/B
OBJECT_ID      = 1986-006B
CENTER_NAME    = EARTH
REF_FRAME      = TEME
TIME_SYSTEM    = UTC
MEAN_ELEMENT_THEORY = SGP/SGP4

EPOCH          = 2026-02-21T02:22:54.555456
MEAN_MOTION    = 14.86791662
ECCENTRICITY   = .0075845
INCLINATION    = 82.5245
RA_OF_ASC_NODE = 275.3546
ARG_OF_PERICENTER = 328.7473
MEAN_ANOMALY   = 30.9244

EPHEMERIS_TYPE = 0
CLASSIFICATION_TYPE = U
NORAD_CAT_ID   = 16496
ELEMENT_SET_NO = 999
REV_AT_EPOCH   = 14674
BSTAR          = .54617E-4
MEAN_MOTION_DOT = .538E-5
MEAN_MOTION_DDOT = 0

CCSDS_OMM_VERS = 2.0
CREATION_DATE  = 
ORIGINATOR     = 

OBJECT_NAME    = COSMOS 1743
OBJECT_ID      = 1986-034A
CENTER_NAME    = EARTH
REF_FRAME      = TEME
TIME_SYSTEM    = UTC
MEAN_ELEMENT_THEORY = SGP/SGP4

EPOCH          = 2026-02-21T03:13:41.503296
MEAN_MOTION    = 15.57272263
ECCENTRICITY   = .0003753
INCLINATION    = 82.5302
RA_OF_ASC_NODE = 91.1898
ARG_OF_PERICENTER = 15.0666
MEAN_ANOMALY   = 345.0700

EPHEMERIS_TYPE = 0
CLASSIFICATION_TYPE = U
NORAD_CAT_ID   = 16719
ELEMENT_SET_NO = 999
REV_AT_EPOCH   = 17767
BSTAR          = .42028E-3
MEAN_MOTION_DOT = .30739E-3
MEAN_MOTION_DDOT = 0

